[{"OBJECT_NAME":"STARLINK-4330","OBJECT_ID":"2022-077AP","EPOCH":"2026-03-09T11:50:48.358464","MEAN_MOTION":15.05645708,"ECCENTRICITY":0.00015073,"INCLINATION":97.6026,"RA_OF_ASC_NODE":251.0179,"ARG_OF_PERICENTER":89.9655,"MEAN_ANOMALY":270.1745,"EPHEMERIS_TYPE":0,"CLASSIFICATION_TYPE":"U","NORAD_CAT_ID":53080,"ELEMENT_SET_NO":999,"REV_AT_EPOCH":20095,"BSTAR":-1.9386071e-5,"MEAN_MOTION_DOT":-3.4e-6,"MEAN_MOTION_DDOT":0},{"OBJECT_NAME":"CHUANGXIN 16A (CX-16A)","OBJECT_ID":"2022-102A","EPOCH":"2026-03-09T19:59:28.991616","MEAN_MOTION":15.05552649,"ECCENTRICITY":0.0005063,"INCLINATION":28.9941,"RA_OF_ASC_NODE":256.1289,"ARG_OF_PERICENTER":43.7318,"MEAN_ANOMALY":316.3682,"EPHEMERIS_TYPE":0,"CLASSIFICATION_TYPE":"U","NORAD_CAT_ID":53586,"ELEMENT_SET_NO":999,"REV_AT_EPOCH":19453,"BSTAR":0.00020134,"MEAN_MOTION_DOT":3.128e-5,"MEAN_MOTION_DDOT":0}]
