STARLINK-4330           
1 53080U 22077AP  26068.49361526 -.00000340  00000+0 -19386-4 0  9991
2 53080  97.6026 251.0179 0001507  89.9655 270.1745 15.05645708200951
CHUANGXIN 16A (CX-16A)  
1 53586U 22102A   26068.83297444  .00003128  00000+0  20134-3 0  9993
2 53586  28.9941 256.1289 0005063  43.7318 316.3682 15.05552649194538
